[{"OBJECT_NAME":"IMECE","OBJECT_ID":"2023-054A","EPOCH":"2026-03-09T21:39:15.023808","MEAN_MOTION":14.65834495,"ECCENTRICITY":0.00107007,"INCLINATION":98.13,"RA_OF_ASC_NODE":334.7859,"ARG_OF_PERICENTER":118.749,"MEAN_ANOMALY":241.479,"EPHEMERIS_TYPE":0,"CLASSIFICATION_TYPE":"U","NORAD_CAT_ID":56178,"ELEMENT_SET_NO":999,"REV_AT_EPOCH":15586,"BSTAR":0.00010462809,"MEAN_MOTION_DOT":5.23e-6,"MEAN_MOTION_DDOT":0},{"OBJECT_NAME":"FENGYUN 1C DEB","OBJECT_ID":"1999-025DTD","EPOCH":"2026-02-28T23:00:43.784640","MEAN_MOTION":14.20983269,"ECCENTRICITY":0.0211183,"INCLINATION":98.4446,"RA_OF_ASC_NODE":125.2406,"ARG_OF_PERICENTER":163.0548,"MEAN_ANOMALY":197.7826,"EPHEMERIS_TYPE":0,"CLASSIFICATION_TYPE":"U","NORAD_CAT_ID":36180,"ELEMENT_SET_NO":999,"REV_AT_EPOCH":71694,"BSTAR":0.0006547,"MEAN_MOTION_DOT":1.734e-5,"MEAN_MOTION_DDOT":0}]
